[{"OBJECT_NAME":"LEMUR-2-EMBRIONOVIS","OBJECT_ID":"2023-084AQ","EPOCH":"2026-03-09T22:21:55.974240","MEAN_MOTION":15.34650722,"ECCENTRICITY":0.00082915,"INCLINATION":97.613,"RA_OF_ASC_NODE":209.6192,"ARG_OF_PERICENTER":311.1934,"MEAN_ANOMALY":48.8593,"EPHEMERIS_TYPE":0,"CLASSIFICATION_TYPE":"U","NORAD_CAT_ID":56970,"ELEMENT_SET_NO":999,"REV_AT_EPOCH":15244,"BSTAR":0.00028007408,"MEAN_MOTION_DOT":9.331e-5,"MEAN_MOTION_DDOT":0},{"OBJECT_NAME":"STARLINK-35945","OBJECT_ID":"2025-286A","EPOCH":"2026-03-09T22:32:19.946400","MEAN_MOTION":15.30210803,"ECCENTRICITY":0.00012597,"INCLINATION":53.1617,"RA_OF_ASC_NODE":357.3758,"ARG_OF_PERICENTER":91.5738,"MEAN_ANOMALY":268.5407,"EPHEMERIS_TYPE":0,"CLASSIFICATION_TYPE":"U","NORAD_CAT_ID":66925,"ELEMENT_SET_NO":999,"REV_AT_EPOCH":1545,"BSTAR":0.00097092818,"MEAN_MOTION_DOT":0.00028517,"MEAN_MOTION_DDOT":0}]
